[{"OBJECT_NAME":"SCS-01 E","OBJECT_ID":"2025-100E","EPOCH":"2026-03-09T19:37:36.788160","MEAN_MOTION":15.18808974,"ECCENTRICITY":0.00041864,"INCLINATION":97.4267,"RA_OF_ASC_NODE":144.0575,"ARG_OF_PERICENTER":16.3517,"MEAN_ANOMALY":343.7852,"EPHEMERIS_TYPE":0,"CLASSIFICATION_TYPE":"U","NORAD_CAT_ID":63986,"ELEMENT_SET_NO":999,"REV_AT_EPOCH":4552,"BSTAR":0.00039415521,"MEAN_MOTION_DOT":8.14e-5,"MEAN_MOTION_DDOT":0},{"OBJECT_NAME":"IRIDE FM5","OBJECT_ID":"2025-276AK","EPOCH":"2026-03-09T22:47:21.359328","MEAN_MOTION":15.1881147,"ECCENTRICITY":0.00041727,"INCLINATION":97.4263,"RA_OF_ASC_NODE":144.1872,"ARG_OF_PERICENTER":15.4541,"MEAN_ANOMALY":344.682,"EPHEMERIS_TYPE":0,"CLASSIFICATION_TYPE":"U","NORAD_CAT_ID":66699,"ELEMENT_SET_NO":999,"REV_AT_EPOCH":1535,"BSTAR":0.00040369446,"MEAN_MOTION_DOT":8.339e-5,"MEAN_MOTION_DDOT":0}]
